{"type": "FeatureCollection", "features": [ {"type": "Feature", "properties": {"norad_id": 31538, "name": "FENGYUN 1C DEB", "group": "fengyun-1c-debris", "lat": -8.135634282188734, "lon": 23.203062395050782, "alt_km": 584.9722904680611, "timestamp": "2025-12-02T07:10:09.398322+00:00", "meta": {"OBJECT_NAME": "FENGYUN 1C DEB", "OBJECT_ID": "1999-025BYD", "EPOCH": "2025-11-18T21:37:36.814656", "MEAN_MOTION": 14.96885168, "ECCENTRICITY": 0.00235351, "INCLINATION": 98.2479, "RA_OF_ASC_NODE": 190.2519, "ARG_OF_PERICENTER": 356.6213, "MEAN_ANOMALY": 3.4844, "EPHEMERIS_TYPE": 0, "CLASSIFICATION_TYPE": "U", "NORAD_CAT_ID": 31538, "ELEMENT_SET_NO": 999, "REV_AT_EPOCH": 66646, "BSTAR": 0.0047226763, "MEAN_MOTION_DOT": 0.00054817, "MEAN_MOTION_DDOT": 0}, "tle": {"line1": "1 31538U 99025BYD 25322.90112054  .00054817  00000+0  47227-2 0  9999", "line2": "2 31538  98.2479 190.2519 0023535 356.6213   3.4844 14.96885168666469"}}, "geometry": {"type": "Point", "coordinates": [23.203062395050782, -8.135634282188734]}}, {"type": "Feature", "properties": {"norad_id": 31540, "name": "FENGYUN 1C DEB", "group": "fengyun-1c-debris", "lat": 29.16851209245415, "lon": -40.23008940071767, "alt_km": 800.0038906272393, "timestamp": "2025-12-02T07:10:09.398332+00:00", "meta": {"OBJECT_NAME": "FENGYUN 1C DEB", "OBJECT_ID": "1999-025BYF", "EPOCH": "2025-11-30T16:47:12.586272", "MEAN_MOTION": 14.65204922, "ECCENTRICITY": 0.01774904, "INCLINATION": 99.0563, "RA_OF_ASC_NODE": 132.9014, "ARG_OF_PERICENTER": 338.1522, "MEAN_ANOMALY": 21.2175, "EPHEMERIS_TYPE": 0, "CLASSIFICATION_TYPE": "U", "NORAD_CAT_ID": 31540, "ELEMENT_SET_NO": 999, "REV_AT_EPOCH": 98125, "BSTAR": 0.00061965123, "MEAN_MOTION_DOT": 4.14e-05, "MEAN_MOTION_DDOT": 0}, "tle": {"line1": "1 31540U 99025BYF 25334.69945123  .00004140  00000+0  61965-3 0  9992", "line2": "2 31540  99.0563 132.9014 0177490 338.1522  21.2175 14.65204922981257"}}, "geometry": {"type": "Point", "coordinates": [-40.23008940071767, 29.16851209245415]}}, {"type": "Feature", "properties": {"norad_id": 31541, "name": "FENGYUN 1C DEB", "group": "fengyun-1c-debris", "lat": -52.34866675994875, "lon": 129.50506352447252, "alt_km": 626.674037098579, "timestamp": "2025-12-02T07:10:09.398345+00:00", "meta": {"OBJECT_NAME": "FENGYUN 1C DEB", "OBJECT_ID": "1999-025BYG", "EPOCH": "2025-12-01T08:30:59.377824", "MEAN_MOTION": 14.68534389, "ECCENTRICITY": 0.00787181, "INCLINATION": 98.9786, "RA_OF_ASC_NODE": 116.6445, "ARG_OF_PERICENTER": 275.4502, "MEAN_ANOMALY": 83.7725, "EPHEMERIS_TYPE": 0, "CLASSIFICATION_TYPE": "U", "NORAD_CAT_ID": 31541, "ELEMENT_SET_NO": 999, "REV_AT_EPOCH": 98256, "BSTAR": 0.0014195856, "MEAN_MOTION_DOT": 8.577e-05, "MEAN_MOTION_DDOT": 0}, "tle": {"line1": "1 31541U 99025BYG 25335.35485391  .00008577  00000+0  14196-2 0  9994", "line2": "2 31541  98.9786 116.6445 0078718 275.4502  83.7725 14.68534389982569"}}, "geometry": {"type": "Point", "coordinates": [129.50506352447252, -52.34866675994875]}}, {"type": "Feature", "properties": {"norad_id": 31542, "name": "FENGYUN 1C DEB", "group": "fengyun-1c-debris", "lat": 73.06352821868774, "lon": -119.28703157904435, "alt_km": 831.8425385602268, "timestamp": "2025-12-02T07:10:09.398358+00:00", "meta": {"OBJECT_NAME": "FENGYUN 1C DEB", "OBJECT_ID": "1999-025BYH", "EPOCH": "2025-11-30T14:09:57.790944", "MEAN_MOTION": 14.22685015, "ECCENTRICITY": 0.00468903, "INCLINATION": 98.7331, "RA_OF_ASC_NODE": 28.7039, "ARG_OF_PERICENTER": 241.7898, "MEAN_ANOMALY": 117.854, "EPHEMERIS_TYPE": 0, "CLASSIFICATION_TYPE": "U", "NORAD_CAT_ID": 31542, "ELEMENT_SET_NO": 999, "REV_AT_EPOCH": 95767, "BSTAR": 0.0013210512, "MEAN_MOTION_DOT": 2.947e-05, "MEAN_MOTION_DDOT": 0}, "tle": {"line1": "1 31542U 99025BYH 25334.59025221  .00002947  00000+0  13211-2 0  9994", "line2": "2 31542  98.7331  28.7039 0046890 241.7898 117.8540 14.22685015957677"}}, "geometry": {"type": "Point", "coordinates": [-119.28703157904435, 73.06352821868774]}}, {"type": "Feature", "properties": {"norad_id": 31544, "name": "FENGYUN 1C DEB", "group": "fengyun-1c-debris", "lat": 27.776667069254174, "lon": -147.61811814849744, "alt_km": 862.6783413892335, "timestamp": "2025-12-02T07:10:09.398368+00:00", "meta": {"OBJECT_NAME": "FENGYUN 1C DEB", "OBJECT_ID": "1999-025BYK", "EPOCH": "2025-11-29T13:55:50.953440", "MEAN_MOTION": 14.14279568, "ECCENTRICITY": 0.00313575, "INCLINATION": 98.831, "RA_OF_ASC_NODE": 24.9985, "ARG_OF_PERICENTER": 307.4599, "MEAN_ANOMALY": 52.3723, "EPHEMERIS_TYPE": 0, "CLASSIFICATION_TYPE": "U", "NORAD_CAT_ID": 31544, "ELEMENT_SET_NO": 999, "REV_AT_EPOCH": 95571, "BSTAR": 0.00072227693, "MEAN_MOTION_DOT": 1.342e-05, "MEAN_MOTION_DDOT": 0}, "tle": {"line1": "1 31544U 99025BYK 25333.58045085  .00001342  00000+0  72228-3 0  9996", "line2": "2 31544  98.8310  24.9985 0031357 307.4599  52.3723 14.14279568955717"}}, "geometry": {"type": "Point", "coordinates": [-147.61811814849744, 27.776667069254174]}}, {"type": "Feature", "properties": {"norad_id": 31546, "name": "FENGYUN 1C DEB", "group": "fengyun-1c-debris", "lat": 3.4105887408212667, "lon": 46.13236077093524, "alt_km": 953.0441678206416, "timestamp": "2025-12-02T07:10:09.398378+00:00", "meta": {"OBJECT_NAME": "FENGYUN 1C DEB", "OBJECT_ID": "1999-025BYM", "EPOCH": "2025-11-30T16:03:48.746880", "MEAN_MOTION": 14.129804, "ECCENTRICITY": 0.01468496, "INCLINATION": 98.246, "RA_OF_ASC_NODE": 45.1257, "ARG_OF_PERICENTER": 171.3779, "MEAN_ANOMALY": 188.997, "EPHEMERIS_TYPE": 0, "CLASSIFICATION_TYPE": "U", "NORAD_CAT_ID": 31546, "ELEMENT_SET_NO": 999, "REV_AT_EPOCH": 94618, "BSTAR": 0.0019297549, "MEAN_MOTION_DOT": 3.948e-05, "MEAN_MOTION_DDOT": 0}, "tle": {"line1": "1 31546U 99025BYM 25334.66931420  .00003948  00000+0  19298-2 0  9996", "line2": "2 31546  98.2460  45.1257 0146849 171.3779 188.9970 14.12980400946180"}}, "geometry": {"type": "Point", "coordinates": [46.13236077093524, 3.4105887408212667]}}, {"type": "Feature", "properties": {"norad_id": 31547, "name": "FENGYUN 1C DEB", "group": "fengyun-1c-debris", "lat": 61.09006666395964, "lon": -143.4162267791381, "alt_km": 846.2501153050844, "timestamp": "2025-12-02T07:10:09.398409+00:00", "meta": {"OBJECT_NAME": "FENGYUN 1C DEB", "OBJECT_ID": "1999-025BYN", "EPOCH": "2025-12-01T01:55:41.530656", "MEAN_MOTION": 14.23021106, "ECCENTRICITY": 0.0053286, "INCLINATION": 99.088, "RA_OF_ASC_NODE": 18.479, "ARG_OF_PERICENTER": 286.5439, "MEAN_ANOMALY": 72.9889, "EPHEMERIS_TYPE": 0, "CLASSIFICATION_TYPE": "U", "NORAD_CAT_ID": 31547, "ELEMENT_SET_NO": 999, "REV_AT_EPOCH": 63851, "BSTAR": 0.0015039247, "MEAN_MOTION_DOT": 3.392e-05, "MEAN_MOTION_DDOT": 0}, "tle": {"line1": "1 31547U 99025BYN 25335.08034179  .00003392  00000+0  15039-2 0  9991", "line2": "2 31547  99.0880  18.4790 0053286 286.5439  72.9889 14.23021106638512"}}, "geometry": {"type": "Point", "coordinates": [-143.4162267791381, 61.09006666395964]}}, {"type": "Feature", "properties": {"norad_id": 31550, "name": "FENGYUN 1C DEB", "group": "fengyun-1c-debris", "lat": 15.9220525711349, "lon": -26.334664681840376, "alt_km": 713.7375309904819, "timestamp": "2025-12-02T07:10:09.398420+00:00", "meta": {"OBJECT_NAME": "FENGYUN 1C DEB", "OBJECT_ID": "1999-025BYR", "EPOCH": "2025-11-30T06:44:17.882592", "MEAN_MOTION": 14.400828, "ECCENTRICITY": 0.01907459, "INCLINATION": 98.3118, "RA_OF_ASC_NODE": 334.0953, "ARG_OF_PERICENTER": 310.6004, "MEAN_ANOMALY": 47.8722, "EPHEMERIS_TYPE": 0, "CLASSIFICATION_TYPE": "U", "NORAD_CAT_ID": 31550, "ELEMENT_SET_NO": 999, "REV_AT_EPOCH": 65275, "BSTAR": 0.0009826252, "MEAN_MOTION_DOT": 3.793e-05, "MEAN_MOTION_DDOT": 0}, "tle": {"line1": "1 31550U 99025BYR 25334.28076253  .00003793  00000+0  98263-3 0  9991", "line2": "2 31550  98.3118 334.0953 0190745 310.6004  47.8722 14.40082800652755"}}, "geometry": {"type": "Point", "coordinates": [-26.334664681840376, 15.9220525711349]}}, {"type": "Feature", "properties": {"norad_id": 31552, "name": "FENGYUN 1C DEB", "group": "fengyun-1c-debris", "lat": 33.99529609314322, "lon": -76.1403547166365, "alt_km": 740.6750926697214, "timestamp": "2025-12-02T07:10:09.398430+00:00", "meta": {"OBJECT_NAME": "FENGYUN 1C DEB", "OBJECT_ID": "1999-025BYT", "EPOCH": "2025-11-30T14:37:50.555424", "MEAN_MOTION": 14.45288601, "ECCENTRICITY": 0.0086373, "INCLINATION": 98.621, "RA_OF_ASC_NODE": 96.2726, "ARG_OF_PERICENTER": 58.268, "MEAN_ANOMALY": 302.6892, "EPHEMERIS_TYPE": 0, "CLASSIFICATION_TYPE": "U", "NORAD_CAT_ID": 31552, "ELEMENT_SET_NO": 999, "REV_AT_EPOCH": 95701, "BSTAR": 0.00311, "MEAN_MOTION_DOT": 0.00011399, "MEAN_MOTION_DDOT": 0}, "tle": {"line1": "1 31552U 99025BYT 25334.60961291  .00011399  00000+0  31100-2 0  9991", "line2": "2 31552  98.6210  96.2726 0086373  58.2680 302.6892 14.45288601957013"}}, "geometry": {"type": "Point", "coordinates": [-76.1403547166365, 33.99529609314322]}}, {"type": "Feature", "properties": {"norad_id": 31553, "name": "FENGYUN 1C DEB", "group": "fengyun-1c-debris", "lat": -80.70187291165672, "lon": 106.29048417500341, "alt_km": 816.2876774400384, "timestamp": "2025-12-02T07:10:09.398440+00:00", "meta": {"OBJECT_NAME": "FENGYUN 1C DEB", "OBJECT_ID": "1999-025BYU", "EPOCH": "2025-12-01T15:30:06.804576", "MEAN_MOTION": 14.30003265, "ECCENTRICITY": 0.00311567, "INCLINATION": 99.005, "RA_OF_ASC_NODE": 30.0201, "ARG_OF_PERICENTER": 133.4764, "MEAN_ANOMALY": 19.8318, "EPHEMERIS_TYPE": 0, "CLASSIFICATION_TYPE": "U", "NORAD_CAT_ID": 31553, "ELEMENT_SET_NO": 999, "REV_AT_EPOCH": 95751, "BSTAR": 0.0016381732, "MEAN_MOTION_DOT": 4.204e-05, "MEAN_MOTION_DDOT": 0}, "tle": {"line1": "1 31553U 99025BYU 25335.64591209  .00004204  00000+0  16382-2 0  9997", "line2": "2 31553  99.0050  30.0201 0031156 133.4764  19.8318 14.30003265957513"}}, "geometry": {"type": "Point", "coordinates": [106.29048417500341, -80.70187291165672]}}]}